STARLINK-31881          
1 59659U 24084F   26068.27279507 -.00001732  00000+0 -53394-4 0  9995
2 59659  43.0039  40.3268 0000997 277.3177  82.7561 15.27592544104353
2025-155V               
1 64895U 25155V   26068.85787115  .00013705  00000+0  51002-3 0  9990
2 64895  97.4485  37.2490 0008035 152.8264 207.3397 15.27583301 65579
